norad_id,name,regime,epoch,line1,line2,inclination,eccentricity,mean_motion,raan,arg_pericenter,mean_anomaly
43231,O3B FM15,MEO,24074.14400352,1 43231U 18024A   24074.14400352 -.00000024  00000-0  00000-0 0    15\,2 43231   0.0470   2.6870 0002592 350.6308   6.6742  5.00114796109752,0.047,0.0002592,5.00114796,2.687,350.6308,6.6742
43231,O3B FM15,MEO,24074.94356684,1 43231U 18024A   24074.94356684 -.00000025  00000-0  00000-0 0    12\,2 43231   0.0470   2.7935 0002591 351.5504   5.6485  5.00114833109791,0.047,0.0002591,5.00114833,2.7935,351.5504,5.6485
43231,O3B FM15,MEO,24076.34280309,1 43231U 18024A   24076.34280309 -.00000028  00000-0  00000-0 0    11\,2 43231   0.0471   2.9850 0002593 352.3746   4.6332  5.00114835109869,0.0471,0.0002593,5.00114835,2.985,352.3746,4.6332
43231,O3B FM15,MEO,24082.33952950,1 43231U 18024A   24082.33952950 -.00000029  00000-0  00000+0 0  5155\,2 43231   0.0472   3.7749 0002588 356.9259 359.2952  5.00114946110344,0.0472,0.0002588,5.00114946,3.7749,356.9259,359.2952
43231,O3B FM15,MEO,24083.73876725,1 43231U 18024A   24083.73876725 -.00000026  00000-0  00000-0 0    13\,2 43231   0.0473   3.8730 0002583 359.8403 356.2852  5.00114924110234,0.0473,0.0002583,5.00114924,3.873,359.8403,356.2852
43231,O3B FM15,MEO,24085.93756811,1 43231U 18024A   24085.93756811 -.00000020  00000-0  00000-0 0    14\,2 43231   0.0473   4.0740 0002583   2.0657 353.8618  5.00114905110340,0.0473,0.0002583,5.00114905,4.074,2.0657,353.8618
43231,O3B FM15,MEO,24087.33680471,1 43231U 18024A   24087.33680471 -.00000018  00000-0  00000-0 0    15\,2 43231   0.0474   4.2277 0002588   3.3056 352.4699  5.00114915110413,0.0474,0.0002588,5.00114915,4.2277,3.3056,352.4699
43231,O3B FM15,MEO,24087.93647750,1 43231U 18024A   24087.93647750 -.00000017  00000-0  00000-0 0    13\,2 43231   0.0474   4.2909 0002586   3.8219 351.8910  5.00114912110448,0.0474,0.0002586,5.00114912,4.2909,3.8219,351.891
43231,O3B FM15,MEO,24088.53615050,1 43231U 18024A   24088.53615050 -.00000016  00000-0  00000-0 0    17\,2 43231   0.0474   4.3629 0002586   4.3487 351.2928  5.00114889110470,0.0474,0.0002586,5.00114889,4.3629,4.3487,351.2928
43231,O3B FM15,MEO,24089.13582291,1 43231U 18024A   24089.13582291 -.00000016  00000-0  00000-0 0    14\,2 43231   0.0474   4.4341 0002589   4.7767 350.7941  5.00114907110504,0.0474,0.0002589,5.00114907,4.4341,4.7767,350.7941
43231,O3B FM15,MEO,24090.73494985,1 43231U 18024A   24090.73494985 -.00000015  00000-0  00000-0 0    13\,2 43231   0.0475   4.6339 0002582   5.9137 349.4580  5.00114897110581,0.0475,0.0002582,5.00114897,4.6339,5.9137,349.458
43231,O3B FM15,MEO,24091.33462260,1 43231U 18024A   24091.33462260 -.00000015  00000-0  00000-0 0    11\,2 43231   0.0475   4.7145 0002583   6.3700 348.9212  5.00114876110616,0.0475,0.0002583,5.00114876,4.7145,6.37,348.9212
43231,O3B FM15,MEO,24093.13364042,1 43231U 18024A   24093.13364042 -.00000016  00000-0  00000-0 0    11\,2 43231   0.0475   4.8908 0002587   8.0403 347.0750  5.00114847110702,0.0475,0.0002587,5.00114847,4.8908,8.0403,347.075
43231,O3B FM15,MEO,24093.73331285,1 43231U 18024A   24093.73331285 -.00000017  00000-0  00000-0 0    11\,2 43231   0.0475   5.0400 0002589   8.5228 346.4433  5.00114847110738,0.0475,0.0002589,5.00114847,5.04,8.5228,346.4433
43231,O3B FM15,MEO,24094.13309463,1 43231U 18024A   24094.13309463 -.00000017  00000-0  00000-0 0    19\,2 43231   0.0475   5.0889 0002591   9.0106 345.9068  5.00114840110756,0.0475,0.0002591,5.0011484,5.0889,9.0106,345.9068
43231,O3B FM15,MEO,24094.53287634,1 43231U 18024A   24094.53287634 -.00000017  00000-0  00000-0 0    18\,2 43231   0.0475   5.0718 0002592   9.4971 345.4374  5.00114840110779,0.0475,0.0002592,5.0011484,5.0718,9.4971,345.4374
43231,O3B FM15,MEO,24095.73222148,1 43231U 18024A   24095.73222148 -.00000018  00000-0  00000-0 0    11\,2 43231   0.0475   5.2204 0002594  10.6825 344.1038  5.00114840110835,0.0475,0.0002594,5.0011484,5.2204,10.6825,344.1038
43231,O3B FM15,MEO,24096.53178492,1 43231U 18024A   24096.53178492 -.00000019  00000-0  00000-0 0    13\,2 43231   0.0475   5.3421 0002595  11.0139 343.6507  5.00114835110874,0.0475,0.0002595,5.00114835,5.3421,11.0139,343.6507
43231,O3B FM15,MEO,24097.33134899,1 43231U 18024A   24097.33134899 -.00000019  00000-0  00000-0 0    15\,2 43231   0.0475   5.4034 0002593  12.0696 342.5344  5.00114802110918,0.0475,0.0002593,5.00114802,5.4034,12.0696,342.5344
43231,O3B FM15,MEO,24098.33080312,1 43231U 18024A   24098.33080312 -.00000019  00000-0  00000-0 0    16\,2 43231   0.0475   5.5720 0002593  12.8203 341.6156  5.00114830110960,0.0475,0.0002593,5.0011483,5.572,12.8203,341.6156
43231,O3B FM15,MEO,24099.53014862,1 43231U 18024A   24099.53014862 -.00000020  00000-0  00000-0 0    18\,2 43231   0.0476   5.6362 0002594  13.8677 340.5048  5.00114830111027,0.0476,0.0002594,5.0011483,5.6362,13.8677,340.5048
43231,O3B FM15,MEO,24101.32916646,1 43231U 18024A   24101.32916646 -.00000023  00000-0  00000-0 0    13\,2 43231   0.0476   5.8772 0002597  15.2927 338.8396  5.00114858111117,0.0476,0.0002597,5.00114858,5.8772,15.2927,338.8396
43231,O3B FM15,MEO,24101.52905717,1 43231U 18024A   24101.52905717 -.00000023  00000-0  00000-0 0    12\,2 43231   0.0476   5.8323 0002597  15.4748 338.7024  5.00114871111125,0.0476,0.0002597,5.00114871,5.8323,15.4748,338.7024
43231,O3B FM15,MEO,24101.72894814,1 43231U 18024A   24101.72894814 -.00000023  00000-0  00000-0 0    19\,2 43231   0.0476   5.8551 0002598  15.6764 338.4781  5.00114866111131,0.0476,0.0002598,5.00114866,5.8551,15.6764,338.4781
43231,O3B FM15,MEO,24103.12818413,1 43231U 18024A   24103.12818413 -.00000026  00000-0  00000-0 0    19\,2 43231   0.0477   6.0276 0002599  16.8526 337.1298  5.00114887111209,0.0477,0.0002599,5.00114887,6.0276,16.8526,337.1298
43231,O3B FM15,MEO,24104.12763832,1 43231U 18024A   24104.12763832 -.00000028  00000-0  00000-0 0    16\,2 43231   0.0477   6.1364 0002599  17.7223 336.1515  5.00114905111259,0.0477,0.0002599,5.00114905,6.1364,17.7223,336.1515
43231,O3B FM15,MEO,24105.52687455,1 43231U 18024A   24105.52687455 -.00000030  00000-0  00000-0 0    10\,2 43231   0.0477   6.2920 0002600  18.8902 334.8284  5.00114903111321,0.0477,0.00026,5.00114903,6.292,18.8902,334.8284
43231,O3B FM15,MEO,24108.12545540,1 43231U 18024A   24108.12545540 -.00000030  00000-0  00000-0 0    17\,2 43231   0.0478   6.5597 0002604  21.2483 332.2039  5.00114984111454,0.0478,0.0002604,5.00114984,6.5597,21.2483,332.2039
43231,O3B FM15,MEO,24112.32316606,1 43231U 18024A   24112.32316606 -.00000021  00000-0  00000-0 0    13\,2 43231   0.0478   6.7694 0002604  26.8178 326.4298  5.00114969111664,0.0478,0.0002604,5.00114969,6.7694,26.8178,326.4298
43231,O3B FM15,MEO,24113.32262054,1 43231U 18024A   24113.32262054 -.00000019  00000-0  00000-0 0    18\,2 43231   0.0478   6.8079 0002600  27.1870 326.0230  5.00114967111717,0.0478,0.00026,5.00114967,6.8079,27.187,326.023
43231,O3B FM15,MEO,24114.32207513,1 43231U 18024A   24114.32207513 -.00000017  00000-0  00000-0 0    16\,2 43231   0.0479   6.7660 0002602  28.4097 324.8434  5.00114975111755,0.0479,0.0002602,5.00114975,6.766,28.4097,324.8434
43231,O3B FM15,MEO,24114.72185690,1 43231U 18024A   24114.72185690 -.00000016  00000-0  00000-0 0    10\,2 43231   0.0479   6.7870 0002601  28.7800 324.4525  5.00114977111773,0.0479,0.0002601,5.00114977,6.787,28.78,324.4525
43231,O3B FM15,MEO,24115.52142081,1 43231U 18024A   24115.52142081 -.00000015  00000-0  00000-0 0    15\,2 43231   0.0479   6.8727 0002604  29.6332 323.5144  5.00114951111823,0.0479,0.0002604,5.00114951,6.8727,29.6332,323.5144
43231,O3B FM15,MEO,24115.72131183,1 43231U 18024A   24115.72131183 -.00000015  00000-0  00000-0 0    18\,2 43231   0.0478   6.9243 0002608  29.5761 323.5200  5.00114935111831,0.0478,0.0002608,5.00114935,6.9243,29.5761,323.52
43231,O3B FM15,MEO,24116.52087554,1 43231U 18024A   24116.52087554 -.00000014  00000-0  00000-0 0    18\,2 43231   0.0478   6.9643 0002614  30.4594 322.5974  5.00114918111879,0.0478,0.0002614,5.00114918,6.9643,30.4594,322.5974
43231,O3B FM15,MEO,24116.72076644,1 43231U 18024A   24116.72076644 -.00000014  00000-0  00000-0 0    18\,2 43231   0.0478   6.9346 0002615  30.6877 322.3989  5.00114914111876,0.0478,0.0002615,5.00114914,6.9346,30.6877,322.3989
43231,O3B FM15,MEO,24117.52032978,1 43231U 18024A   24117.52032978 -.00000014  00000-0  00000-0 0    19\,2 43231   0.0478   7.0882 0002613  31.0078 321.9254  5.00114919111920,0.0478,0.0002613,5.00114919,7.0882,31.0078,321.9254
43231,O3B FM15,MEO,24117.52032998,1 43231U 18024A   24117.52032998 -.00000014  00000-0  00000-0 0    11\,2 43231   0.0479   7.0270 0002616  30.9821 322.0123  5.00114909111914,0.0479,0.0002616,5.00114909,7.027,30.9821,322.0123
43231,O3B FM15,MEO,24117.92011126,1 43231U 18024A   24117.92011126 -.00000014  00000-0  00000-0 0    15\,2 43231   0.0479   7.0628 0002608  31.3411 321.6176  5.00114930111931,0.0479,0.0002608,5.0011493,7.0628,31.3411,321.6176
43231,O3B FM15,MEO,24121.51814633,1 43231U 18024A   24121.51814633 -.00000015  00000-0  00000+0 0  5238\,2 43231   0.0479   7.2941 0002613  34.5979 318.1295  5.00114867112305,0.0479,0.0002613,5.00114867,7.2941,34.5979,318.1295
43231,O3B FM15,MEO,24122.51760038,1 43231U 18024A   24122.51760038 -.00000016  00000-0  00000-0 0    11\,2 43231   0.0478   7.4248 0002613  35.4828 317.1139  5.00114866112179,0.0478,0.0002613,5.00114866,7.4248,35.4828,317.1139
43231,O3B FM15,MEO,24123.31716381,1 43231U 18024A   24123.31716381 -.00000016  00000-0  00000-0 0    12\,2 43231   0.0478   7.4578 0002614  36.1880 316.3758  5.00114854112212,0.0478,0.0002614,5.00114854,7.4578,36.188,316.3758
43231,O3B FM15,MEO,24124.31661774,1 43231U 18024A   24124.31661774 -.00000016  00000-0  00000-0 0    18\,2 43231   0.0478   7.5003 0002616  37.1421 315.3795  5.00114879112262,0.0478,0.0002616,5.00114879,7.5003,37.1421,315.3795
